EUTELSAT 8 WEST B       
1 40875U 15039B   25223.39605660 -.00000064  00000+0  00000+0 0  9990
2 40875   0.0657 355.8100 0003618 144.4924 314.3712  1.00271912 36555
EUTELSAT 9B             
1 41310U 16005A   25223.54220640  .00000062  00000+0  00000+0 0  9994
2 41310   0.0251  63.3613 0001470  98.2506   2.8130  1.00270624 35018
EUTELSAT 65 WEST A      
1 41382U 16014A   25223.52747300 -.00000275  00000+0  00000+0 0  9995
2 41382   0.0538  26.9889 0002197 115.7296 302.2008  1.00269530 34433
EUTELSAT 117 WEST B     
1 41589U 16038B   25223.37197639 -.00000010  00000+0  00000+0 0  9994
2 41589   0.0135 236.6586 0000141 142.7738 317.5529  1.00270341 33558
EUTELSAT 172B           
1 42741U 17029B   25223.50915211 -.00000005  00000+0  00000+0 0  9999
2 42741   0.0225 177.6533 0000421 257.9645 239.8954  1.00271170 30626
EUTELSAT 7C             
1 44334U 19034B   25223.32767630  .00000049  00000+0  00000+0 0  9994
2 44334   0.0750 190.0861 0003376 297.2314 317.6923  1.00271046  3728
EUTELSAT 5 WEST B       
1 44624U 19067A   25223.32524962 -.00000042  00000+0  00000+0 0  9995
2 44624   0.1001 304.8329 0003189 194.0749 293.1952  1.00267630 21333
EUTELSAT KONNECT        
1 45027U 20005B   25223.54185972  .00000050  00000+0  00000+0 0  9993
2 45027   0.0582  97.3096 0001409  85.8731 339.3220  1.00268648 21229
